{
  "type": "FeatureCollection",
  "features": [
    {
      "type": "Feature",
      "properties": {
        "norad_id": 33835,
        "name": "COSMOS 2251 DEB",
        "group": "cosmos-2251-debris",
        "lat": -58.20689966292455,
        "lon": -74.61707614661576,
        "alt_km": 707.7018388847246,
        "timestamp": "2025-12-24T20:42:21.418293+00:00",
        "meta_object_name": "COSMOS 2251 DEB",
        "meta_object_id": "1993-036CC",
        "meta_epoch": "2025-12-24T06:45:11.399616",
        "meta_mean_motion": 14.62356139,
        "meta_eccentricity": 0.0053801,
        "meta_inclination": 74.0572,
        "meta_ra_of_asc_node": 79.0326,
        "meta_arg_of_pericenter": 129.1696,
        "meta_mean_anomaly": 293.003,
        "meta_ephemeris_type": 0,
        "meta_classification_type": "U",
        "meta_norad_cat_id": 33835,
        "meta_element_set_no": 999,
        "meta_rev_at_epoch": 88958,
        "meta_bstar": 0.0009368436,
        "meta_mean_motion_dot": 4.806e-05,
        "meta_mean_motion_ddot": 0,
        "tle_line1": "1 33835U 93036CC  25358.28138194  .00004806  00000+0  93684-3 0  9992",
        "tle_line2": "2 33835  74.0572  79.0326 0053801 129.1696 293.0030 14.62356139889582"
      },
      "geometry": {
        "type": "Point",
        "coordinates": [
          -74.61707614661576,
          -58.20689966292455
        ]
      }
    },
    {
      "type": "Feature",
      "properties": {
        "norad_id": 33836,
        "name": "COSMOS 2251 DEB",
        "group": "cosmos-2251-debris",
        "lat": -52.524241685539,
        "lon": -146.95799168647721,
        "alt_km": 648.6261996305057,
        "timestamp": "2025-12-24T20:42:21.418303+00:00",
        "meta_object_name": "COSMOS 2251 DEB",
        "meta_object_id": "1993-036CD",
        "meta_epoch": "2025-12-23T03:29:31.689888",
        "meta_mean_motion": 14.79785856,
        "meta_eccentricity": 0.00227896,
        "meta_inclination": 73.9961,
        "meta_ra_of_asc_node": 238.4155,
        "meta_arg_of_pericenter": 87.573,
        "meta_mean_anomaly": 72.5934,
        "meta_ephemeris_type": 0,
        "meta_classification_type": "U",
        "meta_norad_cat_id": 33836,
        "meta_element_set_no": 999,
        "meta_rev_at_epoch": 64242,
        "meta_bstar": 0.0012029969,
        "meta_mean_motion_dot": 9.073e-05,
        "meta_mean_motion_ddot": 0,
        "tle_line1": "1 33836U 93036CD  25357.14550567  .00009073  00000+0  12030-2 0  9995",
        "tle_line2": "2 33836  73.9961 238.4155 0022789  87.5730  72.5934 14.79785856642424"
      },
      "geometry": {
        "type": "Point",
        "coordinates": [
          -146.95799168647721,
          -52.524241685539
        ]
      }
    },
    {
      "type": "Feature",
      "properties": {
        "norad_id": 33837,
        "name": "COSMOS 2251 DEB",
        "group": "cosmos-2251-debris",
        "lat": 71.8967265384439,
        "lon": 151.4938097607628,
        "alt_km": 738.8756058186327,
        "timestamp": "2025-12-24T20:42:21.418313+00:00",
        "meta_object_name": "COSMOS 2251 DEB",
        "meta_object_id": "1993-036CE",
        "meta_epoch": "2025-12-23T11:09:00.922464",
        "meta_mean_motion": 14.50722608,
        "meta_eccentricity": 0.00358961,
        "meta_inclination": 74.0124,
        "meta_ra_of_asc_node": 35.4061,
        "meta_arg_of_pericenter": 255.4273,
        "meta_mean_anomaly": 104.2905,
        "meta_ephemeris_type": 0,
        "meta_classification_type": "U",
        "meta_norad_cat_id": 33837,
        "meta_element_set_no": 999,
        "meta_rev_at_epoch": 88951,
        "meta_bstar": 0.00022621397,
        "meta_mean_motion_dot": 8.68e-06,
        "meta_mean_motion_ddot": 0,
        "tle_line1": "1 33837U 93036CE  25357.46459401  .00000868  00000+0  22621-3 0  9997",
        "tle_line2": "2 33837  74.0124  35.4061 0035896 255.4273 104.2905 14.50722608889519"
      },
      "geometry": {
        "type": "Point",
        "coordinates": [
          151.4938097607628,
          71.8967265384439
        ]
      }
    },
    {
      "type": "Feature",
      "properties": {
        "norad_id": 33838,
        "name": "COSMOS 2251 DEB",
        "group": "cosmos-2251-debris",
        "lat": -46.953660729208764,
        "lon": -35.04300307851697,
        "alt_km": 718.7214782766296,
        "timestamp": "2025-12-24T20:42:21.418323+00:00",
        "meta_object_name": "COSMOS 2251 DEB",
        "meta_object_id": "1993-036CF",
        "meta_epoch": "2025-12-23T15:34:17.107104",
        "meta_mean_motion": 14.48394985,
        "meta_eccentricity": 0.00274788,
        "meta_inclination": 74.0364,
        "meta_ra_of_asc_node": 129.3835,
        "meta_arg_of_pericenter": 249.7787,
        "meta_mean_anomaly": 132.5348,
        "meta_ephemeris_type": 0,
        "meta_classification_type": "U",
        "meta_norad_cat_id": 33838,
        "meta_element_set_no": 999,
        "meta_rev_at_epoch": 88727,
        "meta_bstar": 0.00039028626,
        "meta_mean_motion_dot": 1.441e-05,
        "meta_mean_motion_ddot": 0,
        "tle_line1": "1 33838U 93036CF  25357.64880911  .00001441  00000+0  39029-3 0  9990",
        "tle_line2": "2 33838  74.0364 129.3835 0027478 249.7787 132.5348 14.48394985887277"
      },
      "geometry": {
        "type": "Point",
        "coordinates": [
          -35.04300307851697,
          -46.953660729208764
        ]
      }
    },
    {
      "type": "Feature",
      "properties": {
        "norad_id": 33839,
        "name": "COSMOS 2251 DEB",
        "group": "cosmos-2251-debris",
        "lat": 42.24933660049442,
        "lon": -11.88372814204318,
        "alt_km": 730.399796990474,
        "timestamp": "2025-12-24T20:42:21.418336+00:00",
        "meta_object_name": "COSMOS 2251 DEB",
        "meta_object_id": "1993-036CG",
        "meta_epoch": "2025-12-23T19:33:34.360128",
        "meta_mean_motion": 14.64445826,
        "meta_eccentricity": 0.00853576,
        "meta_inclination": 74.0374,
        "meta_ra_of_asc_node": 185.1983,
        "meta_arg_of_pericenter": 294.7494,
        "meta_mean_anomaly": 79.6279,
        "meta_ephemeris_type": 0,
        "meta_classification_type": "U",
        "meta_norad_cat_id": 33839,
        "meta_element_set_no": 999,
        "meta_rev_at_epoch": 89742,
        "meta_bstar": 0.00019226296,
        "meta_mean_motion_dot": 1.039e-05,
        "meta_mean_motion_ddot": 0,
        "tle_line1": "1 33839U 93036CG  25357.81498102  .00001039  00000+0  19226-3 0  9997",
        "tle_line2": "2 33839  74.0374 185.1983 0085357 294.7494  79.6279 14.64445826897429"
      },
      "geometry": {
        "type": "Point",
        "coordinates": [
          -11.88372814204318,
          42.24933660049442
        ]
      }
    },
    {
      "type": "Feature",
      "properties": {
        "norad_id": 33841,
        "name": "COSMOS 2251 DEB",
        "group": "cosmos-2251-debris",
        "lat": 30.271976256779208,
        "lon": 66.10517782578698,
        "alt_km": 778.5079296435351,
        "timestamp": "2025-12-24T20:42:21.418346+00:00",
        "meta_object_name": "COSMOS 2251 DEB",
        "meta_object_id": "1993-036CJ",
        "meta_epoch": "2025-12-24T04:05:25.996128",
        "meta_mean_motion": 14.37876142,
        "meta_eccentricity": 0.00209912,
        "meta_inclination": 74.0375,
        "meta_ra_of_asc_node": 256.9967,
        "meta_arg_of_pericenter": 335.3167,
        "meta_mean_anomaly": 190.7532,
        "meta_ephemeris_type": 0,
        "meta_classification_type": "U",
        "meta_norad_cat_id": 33841,
        "meta_element_set_no": 999,
        "meta_rev_at_epoch": 88278,
        "meta_bstar": 0.00020847313,
        "meta_mean_motion_dot": 6.04e-06,
        "meta_mean_motion_ddot": 0,
        "tle_line1": "1 33841U 93036CJ  25358.17043977  .00000604  00000+0  20847-3 0  9994",
        "tle_line2": "2 33841  74.0375 256.9967 0020991 335.3167 190.7532 14.37876142882783"
      },
      "geometry": {
        "type": "Point",
        "coordinates": [
          66.10517782578698,
          30.271976256779208
        ]
      }
    },
    {
      "type": "Feature",
      "properties": {
        "norad_id": 33842,
        "name": "COSMOS 2251 DEB",
        "group": "cosmos-2251-debris",
        "lat": -67.29238802590507,
        "lon": 60.32656118353383,
        "alt_km": 733.8449761131724,
        "timestamp": "2025-12-24T20:42:21.418356+00:00",
        "meta_object_name": "COSMOS 2251 DEB",
        "meta_object_id": "1993-036CK",
        "meta_epoch": "2025-12-24T06:12:59.422176",
        "meta_mean_motion": 14.42718322,
        "meta_eccentricity": 0.00475723,
        "meta_inclination": 74.0315,
        "meta_ra_of_asc_node": 198.2699,
        "meta_arg_of_pericenter": 303.338,
        "meta_mean_anomaly": 56.3226,
        "meta_ephemeris_type": 0,
        "meta_classification_type": "U",
        "meta_norad_cat_id": 33842,
        "meta_element_set_no": 999,
        "meta_rev_at_epoch": 88503,
        "meta_bstar": 0.00024788133,
        "meta_mean_motion_dot": 8.09e-06,
        "meta_mean_motion_ddot": 0,
        "tle_line1": "1 33842U 93036CK  25358.25902109  .00000809  00000+0  24788-3 0  9990",
        "tle_line2": "2 33842  74.0315 198.2699 0047572 303.3380  56.3226 14.42718322885033"
      },
      "geometry": {
        "type": "Point",
        "coordinates": [
          60.32656118353383,
          -67.29238802590507
        ]
      }
    }
  ]
}